{
  "links" : {
    "next" : "https://api.nasa.gov/neo/rest/v1/feed?start_date=2015-10-23&end_date=2015-10-23&detailed=true&api_key=t0TVs3DtDT2H8Oy2Zy8m2eVrNsAVKAexjcZXUckd",
    "prev" : "https://api.nasa.gov/neo/rest/v1/feed?start_date=2015-10-21&end_date=2015-10-21&detailed=true&api_key=t0TVs3DtDT2H8Oy2Zy8m2eVrNsAVKAexjcZXUckd",
    "self" : "https://api.nasa.gov/neo/rest/v1/feed?start_date=2015-10-22&end_date=2015-10-22&detailed=true&api_key=t0TVs3DtDT2H8Oy2Zy8m2eVrNsAVKAexjcZXUckd"
  },
  "element_count" : 12,
  "near_earth_objects" : {
    "2015-10-22" : [ {
      "links" : {
        "self" : "https://api.nasa.gov/neo/rest/v1/neo/3735464?api_key=t0TVs3DtDT2H8Oy2Zy8m2eVrNsAVKAexjcZXUckd"
      },
      "neo_reference_id" : "3735464",
      "name" : "(2015 WU1)",
      "nasa_jpl_url" : "http://ssd.jpl.nasa.gov/sbdb.cgi?sstr=3735464",
      "absolute_magnitude_h" : 22.3,
      "estimated_diameter" : {
        "kilometers" : {
          "estimated_diameter_min" : 0.0921626549,
          "estimated_diameter_max" : 0.2060819612
        },
        "meters" : {
          "estimated_diameter_min" : 92.1626548503,
          "estimated_diameter_max" : 206.0819612321
        },
        "miles" : {
          "estimated_diameter_min" : 0.057267201,
          "estimated_diameter_max" : 0.1280533543
        },
        "feet" : {
          "estimated_diameter_min" : 302.370924539,
          "estimated_diameter_max" : 676.1219416887
        }
      },
      "is_potentially_hazardous_asteroid" : false,
      "close_approach_data" : [ {
        "close_approach_date" : "2015-10-22",
        "epoch_date_close_approach" : 1445497200000,
        "relative_velocity" : {
          "kilometers_per_second" : "21.1100695167",
          "kilometers_per_hour" : "75996.2502599933",
          "miles_per_hour" : "47221.1145018275"
        },
        "miss_distance" : {
          "astronomical" : "0.1372025726",
          "lunar" : "53.3718032837",
          "kilometers" : "20525214",
          "miles" : "12753776"
        },
        "orbiting_body" : "Earth"
      } ],
      "orbital_data" : {
        "orbit_id" : "5",
        "orbit_determination_date" : "2017-04-06 08:30:29",
        "orbit_uncertainty" : "8",
        "minimum_orbit_intersection" : ".0270233",
        "jupiter_tisserand_invariant" : "2.938",
        "epoch_osculation" : "2457345.5",
        "eccentricity" : ".7943420839664423",
        "semi_major_axis" : "2.477318354552027",
        "inclination" : "1.734755230814723",
        "ascending_node_longitude" : "141.2343880996752",
        "orbital_period" : "1424.200577130702",
        "perihelion_distance" : ".509480130148852",
        "perihelion_argument" : "159.4237976739202",
        "aphelion_distance" : "4.445156578955202",
        "perihelion_time" : "2457273.968034929700",
        "mean_anomaly" : "18.08137690632653",
        "mean_motion" : ".2527733844380839",
        "equinox" : "J2000"
      }
    }, {
      "links" : {
        "self" : "https://api.nasa.gov/neo/rest/v1/neo/2216523?api_key=t0TVs3DtDT2H8Oy2Zy8m2eVrNsAVKAexjcZXUckd"
      },
      "neo_reference_id" : "2216523",
      "name" : "216523 (2001 HY7)",
      "nasa_jpl_url" : "http://ssd.jpl.nasa.gov/sbdb.cgi?sstr=2216523",
      "absolute_magnitude_h" : 20.6,
      "estimated_diameter" : {
        "kilometers" : {
          "estimated_diameter_min" : 0.2016299194,
          "estimated_diameter_max" : 0.4508582062
        },
        "meters" : {
          "estimated_diameter_min" : 201.6299194428,
          "estimated_diameter_max" : 450.8582061718
        },
        "miles" : {
          "estimated_diameter_min" : 0.1252869847,
          "estimated_diameter_max" : 0.2801502144
        },
        "feet" : {
          "estimated_diameter_min" : 661.5155049046,
          "estimated_diameter_max" : 1479.1936371367
        }
      },
      "is_potentially_hazardous_asteroid" : true,
      "close_approach_data" : [ {
        "close_approach_date" : "2015-10-22",
        "epoch_date_close_approach" : 1445497200000,
        "relative_velocity" : {
          "kilometers_per_second" : "17.07176755",
          "kilometers_per_hour" : "61458.3631799287",
          "miles_per_hour" : "38187.8368325507"
        },
        "miss_distance" : {
          "astronomical" : "0.4377180203",
          "lunar" : "170.2723083496",
          "kilometers" : "65481688",
          "miles" : "40688432"
        },
        "orbiting_body" : "Earth"
      } ],
      "orbital_data" : {
        "orbit_id" : "67",
        "orbit_determination_date" : "2017-04-06 09:25:20",
        "orbit_uncertainty" : "0",
        "minimum_orbit_intersection" : ".0355235",
        "jupiter_tisserand_invariant" : "6.454",
        "epoch_osculation" : "2456346.5",
        "eccentricity" : ".4120948370750944",
        "semi_major_axis" : ".9138520280653585",
        "inclination" : "5.208499321631484",
        "ascending_node_longitude" : "205.2425729545676",
        "orbital_period" : "319.0893040944803",
        "perihelion_distance" : ".53725832544902",
        "perihelion_argument" : "211.1301076969899",
        "aphelion_distance" : "1.290445730681697",
        "perihelion_time" : "2456372.826237359775",
        "mean_anomaly" : "330.2984546084541",
        "mean_motion" : "1.128210802996412",
        "equinox" : "J2000"
      }
    }, {
      "links" : {
        "self" : "https://api.nasa.gov/neo/rest/v1/neo/2286080?api_key=t0TVs3DtDT2H8Oy2Zy8m2eVrNsAVKAexjcZXUckd"
      },
      "neo_reference_id" : "2286080",
      "name" : "286080 (2001 TX1)",
      "nasa_jpl_url" : "http://ssd.jpl.nasa.gov/sbdb.cgi?sstr=2286080",
      "absolute_magnitude_h" : 21.1,
      "estimated_diameter" : {
        "kilometers" : {
          "estimated_diameter_min" : 0.160160338,
          "estimated_diameter_max" : 0.358129403
        },
        "meters" : {
          "estimated_diameter_min" : 160.1603379786,
          "estimated_diameter_max" : 358.1294030194
        },
        "miles" : {
          "estimated_diameter_min" : 0.0995189894,
          "estimated_diameter_max" : 0.2225312253
        },
        "feet" : {
          "estimated_diameter_min" : 525.4604432536,
          "estimated_diameter_max" : 1174.9652706022
        }
      },
      "is_potentially_hazardous_asteroid" : true,
      "close_approach_data" : [ {
        "close_approach_date" : "2015-10-22",
        "epoch_date_close_approach" : 1445497200000,
        "relative_velocity" : {
          "kilometers_per_second" : "23.1975034093",
          "kilometers_per_hour" : "83511.012273381",
          "miles_per_hour" : "51890.4953762017"
        },
        "miss_distance" : {
          "astronomical" : "0.2835923848",
          "lunar" : "110.3174362183",
          "kilometers" : "42424816",
          "miles" : "26361558"
        },
        "orbiting_body" : "Earth"
      } ],
      "orbital_data" : {
        "orbit_id" : "25",
        "orbit_determination_date" : "2017-09-23 06:51:21",
        "orbit_uncertainty" : "0",
        "minimum_orbit_intersection" : ".0423575",
        "jupiter_tisserand_invariant" : "5.753",
        "epoch_osculation" : "2458000.5",
        "eccentricity" : ".4825395607342837",
        "semi_major_axis" : "1.047322369278578",
        "inclination" : "2.799625640885128",
        "ascending_node_longitude" : "159.212149199505",
        "orbital_period" : "391.4884882918482",
        "perihelion_distance" : ".5419478932597035",
        "perihelion_argument" : "354.1438929877975",
        "aphelion_distance" : "1.552696845297452",
        "perihelion_time" : "2458156.945737125853",
        "mean_anomaly" : "216.1376207738682",
        "mean_motion" : ".9195672689400408",
        "equinox" : "J2000"
      }
    } ]
  }
}